{"type": "FeatureCollection", "features": [ {"type": "Feature", "properties": {"norad_id": 34750, "name": "COSMOS 2251 DEB", "group": "cosmos-2251-debris", "lat": -0.5870465097381841, "lon": 0.7416012315148754, "alt_km": 673.9718315989958, "timestamp": "2025-12-23T20:42:37.471083+00:00", "meta": {"OBJECT_NAME": "COSMOS 2251 DEB", "OBJECT_ID": "1993-036ZU", "EPOCH": "2025-12-22T12:48:37.447200", "MEAN_MOTION": 14.61412176, "ECCENTRICITY": 0.0038418, "INCLINATION": 74.1065, "RA_OF_ASC_NODE": 183.1044, "ARG_OF_PERICENTER": 132.8514, "MEAN_ANOMALY": 257.3018, "EPHEMERIS_TYPE": 0, "CLASSIFICATION_TYPE": "U", "NORAD_CAT_ID": 34750, "ELEMENT_SET_NO": 999, "REV_AT_EPOCH": 88374, "BSTAR": 0.00113959, "MEAN_MOTION_DOT": 5.675e-05, "MEAN_MOTION_DDOT": 0}, "tle": {"line1": "1 34750U 93036ZU  25356.53376675  .00005675  00000+0  11396-2 0  9997", "line2": "2 34750  74.1065 183.1044 0038418 132.8514 257.3018 14.61412176883742"}}, "geometry": {"type": "Point", "coordinates": [0.7416012315148754, -0.5870465097381841]}}, {"type": "Feature", "properties": {"norad_id": 34752, "name": "COSMOS 2251 DEB", "group": "cosmos-2251-debris", "lat": 63.13697205914135, "lon": 12.433362360938697, "alt_km": 532.6965053292142, "timestamp": "2025-12-23T20:42:37.471093+00:00", "meta": {"OBJECT_NAME": "COSMOS 2251 DEB", "OBJECT_ID": "1993-036ZW", "EPOCH": "2025-12-23T01:12:09.902304", "MEAN_MOTION": 15.00151807, "ECCENTRICITY": 0.00474654, "INCLINATION": 74.0138, "RA_OF_ASC_NODE": 339.6166, "ARG_OF_PERICENTER": 104.7129, "MEAN_ANOMALY": 255.9325, "EPHEMERIS_TYPE": 0, "CLASSIFICATION_TYPE": "U", "NORAD_CAT_ID": 34752, "ELEMENT_SET_NO": 999, "REV_AT_EPOCH": 90004, "BSTAR": 0.0010897318, "MEAN_MOTION_DOT": 0.00013923, "MEAN_MOTION_DDOT": 0}, "tle": {"line1": "1 34752U 93036ZW  25357.05011461  .00013923  00000+0  10897-2 0  9996", "line2": "2 34752  74.0138 339.6166 0047465 104.7129 255.9325 15.00151807900042"}}, "geometry": {"type": "Point", "coordinates": [12.433362360938697, 63.13697205914135]}}, {"type": "Feature", "properties": {"norad_id": 34754, "name": "COSMOS 2251 DEB", "group": "cosmos-2251-debris", "lat": 0.5506496782723754, "lon": 26.87029629430541, "alt_km": 776.1275811111727, "timestamp": "2025-12-23T20:42:37.471103+00:00", "meta": {"OBJECT_NAME": "COSMOS 2251 DEB", "OBJECT_ID": "1993-036ZY", "EPOCH": "2025-12-22T14:01:00.618816", "MEAN_MOTION": 14.40494534, "ECCENTRICITY": 0.00299317, "INCLINATION": 74.0293, "RA_OF_ASC_NODE": 209.393, "ARG_OF_PERICENTER": 323.6263, "MEAN_ANOMALY": 66.4846, "EPHEMERIS_TYPE": 0, "CLASSIFICATION_TYPE": "U", "NORAD_CAT_ID": 34754, "ELEMENT_SET_NO": 999, "REV_AT_EPOCH": 88275, "BSTAR": 0.00017314509, "MEAN_MOTION_DOT": 5.27e-06, "MEAN_MOTION_DDOT": 0}, "tle": {"line1": "1 34754U 93036ZY  25356.58403494  .00000527  00000+0  17315-3 0  9995", "line2": "2 34754  74.0293 209.3930 0029931 323.6263  66.4846 14.40494534882757"}}, "geometry": {"type": "Point", "coordinates": [26.87029629430541, 0.5506496782723754]}}, {"type": "Feature", "properties": {"norad_id": 34755, "name": "COSMOS 2251 DEB", "group": "cosmos-2251-debris", "lat": -64.19013623174254, "lon": -124.4475932311538, "alt_km": 772.9842108518451, "timestamp": "2025-12-23T20:42:37.471114+00:00", "meta": {"OBJECT_NAME": "COSMOS 2251 DEB", "OBJECT_ID": "1993-036ZZ", "EPOCH": "2025-12-20T18:30:29.240064", "MEAN_MOTION": 13.50572591, "ECCENTRICITY": 0.04081275, "INCLINATION": 73.9255, "RA_OF_ASC_NODE": 277.1155, "ARG_OF_PERICENTER": 295.5233, "MEAN_ANOMALY": 88.1239, "EPHEMERIS_TYPE": 0, "CLASSIFICATION_TYPE": "U", "NORAD_CAT_ID": 34755, "ELEMENT_SET_NO": 999, "REV_AT_EPOCH": 82632, "BSTAR": 0.00057435404, "MEAN_MOTION_DOT": 5.95e-06, "MEAN_MOTION_DDOT": 0}, "tle": {"line1": "1 34755U 93036ZZ  25354.77117176  .00000595  00000+0  57435-3 0  9996", "line2": "2 34755  73.9255 277.1155 0408127 295.5233  88.1239 13.50572591826326"}}, "geometry": {"type": "Point", "coordinates": [-124.4475932311538, -64.19013623174254]}}, {"type": "Feature", "properties": {"norad_id": 34756, "name": "COSMOS 2251 DEB", "group": "cosmos-2251-debris", "lat": 34.57639795588621, "lon": -105.32557413262832, "alt_km": 1261.4154497358122, "timestamp": "2025-12-23T20:42:37.471124+00:00", "meta": {"OBJECT_NAME": "COSMOS 2251 DEB", "OBJECT_ID": "1993-036AAA", "EPOCH": "2025-12-22T12:23:20.340096", "MEAN_MOTION": 13.6726693, "ECCENTRICITY": 0.03457457, "INCLINATION": 74.0031, "RA_OF_ASC_NODE": 88.2919, "ARG_OF_PERICENTER": 322.0021, "MEAN_ANOMALY": 35.7148, "EPHEMERIS_TYPE": 0, "CLASSIFICATION_TYPE": "U", "NORAD_CAT_ID": 34756, "ELEMENT_SET_NO": 999, "REV_AT_EPOCH": 83555, "BSTAR": 0.0010168028, "MEAN_MOTION_DOT": 1.267e-05, "MEAN_MOTION_DDOT": 0}, "tle": {"line1": "1 34756U 93036AAA 25356.51620764  .00001267  00000+0  10168-2 0  9991", "line2": "2 34756  74.0031  88.2919 0345745 322.0021  35.7148 13.67266930835554"}}, "geometry": {"type": "Point", "coordinates": [-105.32557413262832, 34.57639795588621]}}, {"type": "Feature", "properties": {"norad_id": 34758, "name": "COSMOS 2251 DEB", "group": "cosmos-2251-debris", "lat": -62.90224130446454, "lon": 135.42962324896476, "alt_km": 1304.4708176908653, "timestamp": "2025-12-23T20:42:37.471134+00:00", "meta": {"OBJECT_NAME": "COSMOS 2251 DEB", "OBJECT_ID": "1993-036AAC", "EPOCH": "2025-12-23T01:49:17.476608", "MEAN_MOTION": 13.58107356, "ECCENTRICITY": 0.03822072, "INCLINATION": 74.107, "RA_OF_ASC_NODE": 282.8618, "ARG_OF_PERICENTER": 44.1617, "MEAN_ANOMALY": 318.934, "EPHEMERIS_TYPE": 0, "CLASSIFICATION_TYPE": "U", "NORAD_CAT_ID": 34758, "ELEMENT_SET_NO": 999, "REV_AT_EPOCH": 83050, "BSTAR": 0.0017020771, "MEAN_MOTION_DOT": 1.966e-05, "MEAN_MOTION_DDOT": 0}, "tle": {"line1": "1 34758U 93036AAC 25357.07589672  .00001966  00000+0  17021-2 0  9998", "line2": "2 34758  74.1070 282.8618 0382207  44.1617 318.9340 13.58107356830501"}}, "geometry": {"type": "Point", "coordinates": [135.42962324896476, -62.90224130446454]}}, {"type": "Feature", "properties": {"norad_id": 34760, "name": "COSMOS 2251 DEB", "group": "cosmos-2251-debris", "lat": 71.88577884977533, "lon": -16.62655214397664, "alt_km": 841.7911595358864, "timestamp": "2025-12-23T20:42:37.471144+00:00", "meta": {"OBJECT_NAME": "COSMOS 2251 DEB", "OBJECT_ID": "1993-036AAE", "EPOCH": "2025-12-23T03:43:05.079360", "MEAN_MOTION": 14.19595173, "ECCENTRICITY": 0.00972201, "INCLINATION": 74.0632, "RA_OF_ASC_NODE": 283.7721, "ARG_OF_PERICENTER": 333.614, "MEAN_ANOMALY": 89.7391, "EPHEMERIS_TYPE": 0, "CLASSIFICATION_TYPE": "U", "NORAD_CAT_ID": 34760, "ELEMENT_SET_NO": 999, "REV_AT_EPOCH": 86836, "BSTAR": 0.00053269604, "MEAN_MOTION_DOT": 1.153e-05, "MEAN_MOTION_DDOT": 0}, "tle": {"line1": "1 34760U 93036AAE 25357.15491990  .00001153  00000+0  53270-3 0  9990", "line2": "2 34760  74.0632 283.7721 0097220 333.6140  89.7391 14.19595173868367"}}, "geometry": {"type": "Point", "coordinates": [-16.62655214397664, 71.88577884977533]}}, {"type": "Feature", "properties": {"norad_id": 34761, "name": "COSMOS 2251 DEB", "group": "cosmos-2251-debris", "lat": 18.927917791288625, "lon": -12.071631510137182, "alt_km": 738.4353932066051, "timestamp": "2025-12-23T20:42:37.471155+00:00", "meta": {"OBJECT_NAME": "COSMOS 2251 DEB", "OBJECT_ID": "1993-036AAF", "EPOCH": "2025-12-23T05:35:37.346496", "MEAN_MOTION": 14.38085357, "ECCENTRICITY": 0.00369815, "INCLINATION": 74.0286, "RA_OF_ASC_NODE": 343.4526, "ARG_OF_PERICENTER": 14.65, "MEAN_ANOMALY": 345.5717, "EPHEMERIS_TYPE": 0, "CLASSIFICATION_TYPE": "U", "NORAD_CAT_ID": 34761, "ELEMENT_SET_NO": 999, "REV_AT_EPOCH": 87800, "BSTAR": 0.00059051219, "MEAN_MOTION_DOT": 1.777e-05, "MEAN_MOTION_DDOT": 0}, "tle": {"line1": "1 34761U 93036AAF 25357.23307114  .00001777  00000+0  59051-3 0  9999", "line2": "2 34761  74.0286 343.4526 0036981  14.6500 345.5717 14.38085357878009"}}, "geometry": {"type": "Point", "coordinates": [-12.071631510137182, 18.927917791288625]}}, {"type": "Feature", "properties": {"norad_id": 34784, "name": "COSMOS 2251 DEB", "group": "cosmos-2251-debris", "lat": 71.23089886834761, "lon": 0.6216505899997106, "alt_km": 652.8385274822531, "timestamp": "2025-12-23T20:42:37.471165+00:00", "meta": {"OBJECT_NAME": "COSMOS 2251 DEB", "OBJECT_ID": "1993-036AAM", "EPOCH": "2025-12-22T03:15:24.680448", "MEAN_MOTION": 14.60818726, "ECCENTRICITY": 0.00491808, "INCLINATION": 74.0079, "RA_OF_ASC_NODE": 306.3699, "ARG_OF_PERICENTER": 112.8499, "MEAN_ANOMALY": 247.7872, "EPHEMERIS_TYPE": 0, "CLASSIFICATION_TYPE": "U", "NORAD_CAT_ID": 34784, "ELEMENT_SET_NO": 999, "REV_AT_EPOCH": 88672, "BSTAR": 0.00046694369, "MEAN_MOTION_DOT": 2.29e-05, "MEAN_MOTION_DDOT": 0}, "tle": {"line1": "1 34784U 93036AAM 25356.13570232  .00002290  00000+0  46694-3 0  9995", "line2": "2 34784  74.0079 306.3699 0049180 112.8499 247.7872 14.60818726886728"}}, "geometry": {"type": "Point", "coordinates": [0.6216505899997106, 71.23089886834761]}}, {"type": "Feature", "properties": {"norad_id": 34790, "name": "COSMOS 2251 DEB", "group": "cosmos-2251-debris", "lat": -18.402590413497965, "lon": 49.13820638041985, "alt_km": 805.8309933729852, "timestamp": "2025-12-23T20:42:37.471175+00:00", "meta": {"OBJECT_NAME": "COSMOS 2251 DEB", "OBJECT_ID": "1993-036AAT", "EPOCH": "2025-12-23T01:56:29.964768", "MEAN_MOTION": 14.24664119, "ECCENTRICITY": 0.01005884, "INCLINATION": 74.0529, "RA_OF_ASC_NODE": 225.087, "ARG_OF_PERICENTER": 284.5236, "MEAN_ANOMALY": 226.3982, "EPHEMERIS_TYPE": 0, "CLASSIFICATION_TYPE": "U", "NORAD_CAT_ID": 34790, "ELEMENT_SET_NO": 999, "REV_AT_EPOCH": 86720, "BSTAR": 0.00052586862, "MEAN_MOTION_DOT": 1.263e-05, "MEAN_MOTION_DDOT": 0}, "tle": {"line1": "1 34790U 93036AAT 25357.08090237  .00001263  00000+0  52587-3 0  9996", "line2": "2 34790  74.0529 225.0870 0100588 284.5236 226.3982 14.24664119867201"}}, "geometry": {"type": "Point", "coordinates": [49.13820638041985, -18.402590413497965]}}]}